0 SL-14 DEB
1 27639U 87068CM  13284.20390160  .00000169  00000-0  17103-3 0  8153
2 27639 082.5072 091.1987 0067627 237.8496 121.6228 13.70933102620149
0 SL-14 DEB
1 27639U 87068CM  13287.19624108  .00000147  00000-0  14729-3 0  8164
2 27639 082.5080 088.8643 0067264 229.4132 130.1159 13.70933391620554
0 SL-14 DEB
1 27639U 87068CM  13289.75067695  .00000156  00000-0  15701-3 0  8172
2 27639 082.5077 086.8684 0067306 222.3072 137.2892 13.70934345620906
0 SL-14 DEB
1 27639U 87068CM  13292.74301566  .00000163  00000-0  16502-3 0  8182
2 27639 082.5072 084.5309 0067504 214.3067 145.3740 13.70935471621314
0 SL-14 DEB
1 27639U 87068CM  13295.73535430  .00000169  00000-0  17048-3 0  8196
2 27639 082.5072 082.1944 0067576 206.1355 153.6408 13.70936557621725
